[{"OBJECT_NAME":"STARLINK-2517","OBJECT_ID":"2021-036AK","EPOCH":"2026-01-07T09:25:17.619456","MEAN_MOTION":15.06420143,"ECCENTRICITY":0.0001452,"INCLINATION":53.0551,"RA_OF_ASC_NODE":6.7905,"ARG_OF_PERICENTER":87.9274,"MEAN_ANOMALY":272.1881,"EPHEMERIS_TYPE":0,"CLASSIFICATION_TYPE":"U","NORAD_CAT_ID":48309,"ELEMENT_SET_NO":999,"REV_AT_EPOCH":25893,"BSTAR":0.0002846,"MEAN_MOTION_DOT":3.962e-5,"MEAN_MOTION_DDOT":0},{"OBJECT_NAME":"STARLINK-2536","OBJECT_ID":"2021-036AL","EPOCH":"2026-01-07T17:17:42.481248","MEAN_MOTION":15.06398413,"ECCENTRICITY":0.0001379,"INCLINATION":53.056,"RA_OF_ASC_NODE":5.3184,"ARG_OF_PERICENTER":88.9363,"MEAN_ANOMALY":271.1784,"EPHEMERIS_TYPE":0,"CLASSIFICATION_TYPE":"U","NORAD_CAT_ID":48310,"ELEMENT_SET_NO":999,"REV_AT_EPOCH":25898,"BSTAR":-8.3965e-6,"MEAN_MOTION_DOT":-4.06e-6,"MEAN_MOTION_DDOT":0},{"OBJECT_NAME":"STARLINK-2534","OBJECT_ID":"2021-036AM","EPOCH":"2026-01-07T17:12:23.692896","MEAN_MOTION":15.06402929,"ECCENTRICITY":0.0001732,"INCLINATION":53.0552,"RA_OF_ASC_NODE":5.334,"ARG_OF_PERICENTER":83.8619,"MEAN_ANOMALY":276.2568,"EPHEMERIS_TYPE":0,"CLASSIFICATION_TYPE":"U","NORAD_CAT_ID":48311,"ELEMENT_SET_NO":999,"REV_AT_EPOCH":25898,"BSTAR":5.4693e-5,"MEAN_MOTION_DOT":5.33e-6,"MEAN_MOTION_DDOT":0},{"OBJECT_NAME":"STARLINK-2061","OBJECT_ID":"2021-036AN","EPOCH":"2026-01-07T17:07:05.839392","MEAN_MOTION":15.0639675,"ECCENTRICITY":0.0001719,"INCLINATION":53.0577,"RA_OF_ASC_NODE":5.3522,"ARG_OF_PERICENTER":80.6806,"MEAN_ANOMALY":279.4377,"EPHEMERIS_TYPE":0,"CLASSIFICATION_TYPE":"U","NORAD_CAT_ID":48312,"ELEMENT_SET_NO":999,"REV_AT_EPOCH":25898,"BSTAR":7.8778e-5,"MEAN_MOTION_DOT":8.92e-6,"MEAN_MOTION_DDOT":0},{"OBJECT_NAME":"STARLINK-2549","OBJECT_ID":"2021-036AQ","EPOCH":"2026-01-07T16:56:28.271328","MEAN_MOTION":15.06399381,"ECCENTRICITY":0.0001718,"INCLINATION":53.0555,"RA_OF_ASC_NODE":5.3842,"ARG_OF_PERICENTER":81.6852,"MEAN_ANOMALY":278.4332,"EPHEMERIS_TYPE":0,"CLASSIFICATION_TYPE":"U","NORAD_CAT_ID":48314,"ELEMENT_SET_NO":999,"REV_AT_EPOCH":25897,"BSTAR":4.9606e-5,"MEAN_MOTION_DOT":4.57e-6,"MEAN_MOTION_DDOT":0},{"OBJECT_NAME":"STARLINK-2506","OBJECT_ID":"2021-036AR","EPOCH":"2026-01-07T16:51:09.415584","MEAN_MOTION":15.0640363,"ECCENTRICITY":0.0001698,"INCLINATION":53.055,"RA_OF_ASC_NODE":5.3992,"ARG_OF_PERICENTER":87.1367,"MEAN_ANOMALY":272.9817,"EPHEMERIS_TYPE":0,"CLASSIFICATION_TYPE":"U","NORAD_CAT_ID":48315,"ELEMENT_SET_NO":999,"REV_AT_EPOCH":25897,"BSTAR":0.00010865,"MEAN_MOTION_DOT":1.337e-5,"MEAN_MOTION_DDOT":0},{"OBJECT_NAME":"STARLINK-2507","OBJECT_ID":"2021-036AS","EPOCH":"2026-01-07T16:45:51.145632","MEAN_MOTION":15.06399449,"ECCENTRICITY":0.0001905,"INCLINATION":53.057,"RA_OF_ASC_NODE":5.4163,"ARG_OF_PERICENTER":78.1213,"MEAN_ANOMALY":281.9989,"EPHEMERIS_TYPE":0,"CLASSIFICATION_TYPE":"U","NORAD_CAT_ID":48316,"ELEMENT_SET_NO":999,"REV_AT_EPOCH":25897,"BSTAR":5.8767e-5,"MEAN_MOTION_DOT":5.94e-6,"MEAN_MOTION_DDOT":0},{"OBJECT_NAME":"STARLINK-2513","OBJECT_ID":"2021-036AT","EPOCH":"2026-01-07T16:40:32.352960","MEAN_MOTION":15.06391733,"ECCENTRICITY":0.0001249,"INCLINATION":53.0551,"RA_OF_ASC_NODE":5.4327,"ARG_OF_PERICENTER":84.7022,"MEAN_ANOMALY":275.4109,"EPHEMERIS_TYPE":0,"CLASSIFICATION_TYPE":"U","NORAD_CAT_ID":48317,"ELEMENT_SET_NO":999,"REV_AT_EPOCH":25897,"BSTAR":-0.00035125,"MEAN_MOTION_DOT":-5.508e-5,"MEAN_MOTION_DDOT":0},{"OBJECT_NAME":"STARLINK-2509","OBJECT_ID":"2021-036AU","EPOCH":"2026-01-07T18:04:08.689440","MEAN_MOTION":15.06403782,"ECCENTRICITY":0.0001807,"INCLINATION":53.052,"RA_OF_ASC_NODE":15.1745,"ARG_OF_PERICENTER":91.0601,"MEAN_ANOMALY":269.0595,"EPHEMERIS_TYPE":0,"CLASSIFICATION_TYPE":"U","NORAD_CAT_ID":48318,"ELEMENT_SET_NO":999,"REV_AT_EPOCH":25884,"BSTAR":-2.5438e-5,"MEAN_MOTION_DOT":-6.61e-6,"MEAN_MOTION_DDOT":0},{"OBJECT_NAME":"STARLINK-2512","OBJECT_ID":"2021-036AV","EPOCH":"2026-01-07T17:57:28.029312","MEAN_MOTION":15.06403343,"ECCENTRICITY":0.0001133,"INCLINATION":53.0547,"RA_OF_ASC_NODE":15.1836,"ARG_OF_PERICENTER":95.7063,"MEAN_ANOMALY":264.4055,"EPHEMERIS_TYPE":0,"CLASSIFICATION_TYPE":"U","NORAD_CAT_ID":48319,"ELEMENT_SET_NO":999,"REV_AT_EPOCH":25884,"BSTAR":0.00011955,"MEAN_MOTION_DOT":1.5e-5,"MEAN_MOTION_DDOT":0},{"OBJECT_NAME":"STARLINK-2029","OBJECT_ID":"2021-036AW","EPOCH":"2026-01-07T06:44:45.161664","MEAN_MOTION":15.06416002,"ECCENTRICITY":0.0001578,"INCLINATION":53.0549,"RA_OF_ASC_NODE":17.2918,"ARG_OF_PERICENTER":88.3007,"MEAN_ANOMALY":271.8163,"EPHEMERIS_TYPE":0,"CLASSIFICATION_TYPE":"U","NORAD_CAT_ID":48320,"ELEMENT_SET_NO":999,"REV_AT_EPOCH":25877,"BSTAR":0.00052286,"MEAN_MOTION_DOT":7.518e-5,"MEAN_MOTION_DDOT":0},{"OBJECT_NAME":"STARLINK-2457","OBJECT_ID":"2021-036AX","EPOCH":"2026-01-07T17:48:12.773664","MEAN_MOTION":15.06402395,"ECCENTRICITY":0.0001496,"INCLINATION":53.0545,"RA_OF_ASC_NODE":15.2268,"ARG_OF_PERICENTER":91.9481,"MEAN_ANOMALY":268.1679,"EPHEMERIS_TYPE":0,"CLASSIFICATION_TYPE":"U","NORAD_CAT_ID":48321,"ELEMENT_SET_NO":999,"REV_AT_EPOCH":25884,"BSTAR":-9.2649e-5,"MEAN_MOTION_DOT":-1.661e-5,"MEAN_MOTION_DDOT":0},{"OBJECT_NAME":"STARLINK-2515","OBJECT_ID":"2021-036AZ","EPOCH":"2026-01-07T09:39:53.831232","MEAN_MOTION":15.0640066,"ECCENTRICITY":0.000135,"INCLINATION":53.0559,"RA_OF_ASC_NODE":16.7454,"ARG_OF_PERICENTER":87.2147,"MEAN_ANOMALY":272.8997,"EPHEMERIS_TYPE":0,"CLASSIFICATION_TYPE":"U","NORAD_CAT_ID":48323,"ELEMENT_SET_NO":999,"REV_AT_EPOCH":25879,"BSTAR":0.00018793,"MEAN_MOTION_DOT":2.519e-5,"MEAN_MOTION_DDOT":0},{"OBJECT_NAME":"STARLINK-2495","OBJECT_ID":"2021-036BB","EPOCH":"2026-01-07T09:29:16.646784","MEAN_MOTION":15.06419624,"ECCENTRICITY":0.0001517,"INCLINATION":53.0559,"RA_OF_ASC_NODE":16.7777,"ARG_OF_PERICENTER":76.4136,"MEAN_ANOMALY":283.7021,"EPHEMERIS_TYPE":0,"CLASSIFICATION_TYPE":"U","NORAD_CAT_ID":48325,"ELEMENT_SET_NO":999,"REV_AT_EPOCH":25879,"BSTAR":0.00047419,"MEAN_MOTION_DOT":6.792e-5,"MEAN_MOTION_DDOT":0},{"OBJECT_NAME":"STARLINK-2498","OBJECT_ID":"2021-036BC","EPOCH":"2026-01-07T17:21:39.943008","MEAN_MOTION":15.06412088,"ECCENTRICITY":0.0001267,"INCLINATION":53.0565,"RA_OF_ASC_NODE":15.3053,"ARG_OF_PERICENTER":92.0437,"MEAN_ANOMALY":268.0697,"EPHEMERIS_TYPE":0,"CLASSIFICATION_TYPE":"U","NORAD_CAT_ID":48326,"ELEMENT_SET_NO":999,"REV_AT_EPOCH":25884,"BSTAR":0.00013575,"MEAN_MOTION_DOT":1.742e-5,"MEAN_MOTION_DDOT":0},{"OBJECT_NAME":"STARLINK-2502","OBJECT_ID":"2021-036BD","EPOCH":"2026-01-07T17:16:22.073088","MEAN_MOTION":15.06402856,"ECCENTRICITY":0.0001492,"INCLINATION":53.0571,"RA_OF_ASC_NODE":15.3217,"ARG_OF_PERICENTER":77.9194,"MEAN_ANOMALY":282.1962,"EPHEMERIS_TYPE":0,"CLASSIFICATION_TYPE":"U","NORAD_CAT_ID":48327,"ELEMENT_SET_NO":999,"REV_AT_EPOCH":25884,"BSTAR":2.5219e-5,"MEAN_MOTION_DOT":9.4e-7,"MEAN_MOTION_DDOT":0},{"OBJECT_NAME":"STARLINK-2504","OBJECT_ID":"2021-036BE","EPOCH":"2026-01-07T17:11:03.581088","MEAN_MOTION":15.0640767,"ECCENTRICITY":0.0001343,"INCLINATION":53.0552,"RA_OF_ASC_NODE":15.3374,"ARG_OF_PERICENTER":85.3207,"MEAN_ANOMALY":274.7936,"EPHEMERIS_TYPE":0,"CLASSIFICATION_TYPE":"U","NORAD_CAT_ID":48328,"ELEMENT_SET_NO":999,"REV_AT_EPOCH":25884,"BSTAR":0.00017419,"MEAN_MOTION_DOT":2.315e-5,"MEAN_MOTION_DDOT":0}]
