STARLINK-2517           
1 48309U 21036AK  26007.39256504  .00003962  00000+0  28460-3 0  9997
2 48309  53.0551   6.7905 0001452  87.9274 272.1881 15.06420143258933
STARLINK-2536           
1 48310U 21036AL  26007.72063057 -.00000406  00000+0 -83965-5 0  9990
2 48310  53.0560   5.3184 0001379  88.9363 271.1784 15.06398413258987
STARLINK-2534           
1 48311U 21036AM  26007.71694089  .00000533  00000+0  54693-4 0  9999
2 48311  53.0552   5.3340 0001732  83.8619 276.2568 15.06402929258988
STARLINK-2061           
1 48312U 21036AN  26007.71326203  .00000892  00000+0  78778-4 0  9998
2 48312  53.0577   5.3522 0001719  80.6806 279.4377 15.06396750258983
STARLINK-2549           
1 48314U 21036AQ  26007.70588277  .00000457  00000+0  49606-4 0  9995
2 48314  53.0555   5.3842 0001718  81.6852 278.4332 15.06399381258979
STARLINK-2506           
1 48315U 21036AR  26007.70219231  .00001337  00000+0  10865-3 0  9999
2 48315  53.0550   5.3992 0001698  87.1367 272.9817 15.06403630258970
STARLINK-2507           
1 48316U 21036AS  26007.69850863  .00000594  00000+0  58767-4 0  9998
2 48316  53.0570   5.4163 0001905  78.1213 281.9989 15.06399449258977
STARLINK-2513           
1 48317U 21036AT  26007.69481890 -.00005508  00000+0 -35125-3 0  9993
2 48317  53.0551   5.4327 0001249  84.7022 275.4109 15.06391733258971
STARLINK-2509           
1 48318U 21036AU  26007.75287835 -.00000661  00000+0 -25438-4 0  9996
2 48318  53.0520  15.1745 0001807  91.0601 269.0595 15.06403782258846
STARLINK-2512           
1 48319U 21036AV  26007.74824108  .00001500  00000+0  11955-3 0  9995
2 48319  53.0547  15.1836 0001133  95.7063 264.4055 15.06403343258845
STARLINK-2029           
1 48320U 21036AW  26007.28107826  .00007518  00000+0  52286-3 0  9994
2 48320  53.0549  17.2918 0001578  88.3007 271.8163 15.06416002258772
STARLINK-2457           
1 48321U 21036AX  26007.74181451 -.00001661  00000+0 -92649-4 0  9995
2 48321  53.0545  15.2268 0001496  91.9481 268.1679 15.06402395258849
STARLINK-2515           
1 48323U 21036AZ  26007.40270638  .00002519  00000+0  18793-3 0  9994
2 48323  53.0559  16.7454 0001350  87.2147 272.8997 15.06400660258797
STARLINK-2495           
1 48325U 21036BB  26007.39533156  .00006792  00000+0  47419-3 0  9995
2 48325  53.0559  16.7777 0001517  76.4136 283.7021 15.06419624258799
STARLINK-2498           
1 48326U 21036BC  26007.72337897  .00001742  00000+0  13575-3 0  9993
2 48326  53.0565  15.3053 0001267  92.0437 268.0697 15.06412088258847
STARLINK-2502           
1 48327U 21036BD  26007.71969992  .00000094  00000+0  25219-4 0  9998
2 48327  53.0571  15.3217 0001492  77.9194 282.1962 15.06402856258843
STARLINK-2504           
1 48328U 21036BE  26007.71601367  .00002315  00000+0  17419-3 0  9998
2 48328  53.0552  15.3374 0001343  85.3207 274.7936 15.06407670258847
